TOMORROW-S1             
1 60479U 24149M   26068.72470524  .00008620  00000+0  28856-3 0  9996
2 60479  97.3791 149.6044 0001819 207.2040 152.9106 15.31198362 86867
STARLINK-33950          
1 63701U 25087E   26068.72913924  .00012442  00000+0  43161-3 0  9998
2 63701  53.1597 219.5170 0000999 101.0763 259.0350 15.30192816 49204
